[{"OBJECT_NAME":"ICEYE-X50","OBJECT_ID":"2025-052AX","EPOCH":"2026-03-09T23:21:07.900704","MEAN_MOTION":14.94907916,"ECCENTRICITY":0.00023707,"INCLINATION":97.7003,"RA_OF_ASC_NODE":322.7375,"ARG_OF_PERICENTER":140.471,"MEAN_ANOMALY":219.6684,"EPHEMERIS_TYPE":0,"CLASSIFICATION_TYPE":"U","NORAD_CAT_ID":63255,"ELEMENT_SET_NO":999,"REV_AT_EPOCH":5382,"BSTAR":0.00028014497,"MEAN_MOTION_DOT":2.999e-5,"MEAN_MOTION_DDOT":0},{"OBJECT_NAME":"OBJECT J","OBJECT_ID":"2019-093J","EPOCH":"2026-03-09T22:08:33.484128","MEAN_MOTION":14.91854297,"ECCENTRICITY":0.00138827,"INCLINATION":97.7938,"RA_OF_ASC_NODE":154.4383,"ARG_OF_PERICENTER":48.0524,"MEAN_ANOMALY":312.1875,"EPHEMERIS_TYPE":0,"CLASSIFICATION_TYPE":"U","NORAD_CAT_ID":44887,"ELEMENT_SET_NO":999,"REV_AT_EPOCH":33718,"BSTAR":0.0002737787,"MEAN_MOTION_DOT":2.713e-5,"MEAN_MOTION_DDOT":0}]
